COSMOS 2425 (716)       
1 29670U 06062A   21028.18905532  .00000084  00000-0  00000-0 0  9996
2 29670  64.8823 260.1904 0024521 349.5009 189.3566  2.13107703109689
COSMOS 2433 (720)       
1 32275U 07052A   21029.91762933 -.00000026  00000-0  00000-0 0  9996
2 32275  66.0394  21.3872 0005304 262.6794 341.8860  2.13104272103231
COSMOS 2432 (719)       
1 32276U 07052B   21029.44730257 -.00000026  00000-0  00000-0 0  9999
2 32276  66.0517  21.4954 0011888 317.9724 235.3775  2.13103544103224
COSMOS 2434 (721)       
1 32393U 07065A   21029.75007707  .00000078  00000-0  00000-0 0  9990
2 32393  64.4982 258.6597 0004216  73.0971 290.9338  2.13103046101946
COSMOS 2436 (723)       
1 32395U 07065C   21029.54945530  .00000079  00000-0  00000-0 0  9995
2 32395  64.5067 258.7186 0016025   4.4079 341.8674  2.13102962101862
COSMOS 2456 (730)       
1 36111U 09070A   21029.43004856  .00000020  00000-0  00000-0 0  9994
2 36111  64.2552 138.3500 0002694 329.0703 321.8428  2.13099133 86590
COSMOS 2457 (733)       
1 36112U 09070B   21029.70181517  .00000022  00000-0  00000-0 0  9997
2 36112  64.2378 138.2294 0006080 157.8077 104.8622  2.13101400 86608
COSMOS 2459 (731)       
1 36400U 10007A   21029.64394362 -.00000027  00000-0  00000-0 0  9992
2 36400  65.9375  20.3394 0026016 343.8595 266.8856  2.13105106 84948
COSMOS 2461 (735)       
1 36401U 10007B   21029.64598038 -.00000027  00000-0  00000-0 0  9999
2 36401  65.9335  20.3035 0020144 359.2071 255.0468  2.13103741 84956
COSMOS 2460 (732)       
1 36402U 10007C   21029.64893874 -.00000027  00000-0  00000-0 0  9996
2 36402  65.9198  20.2634 0002663 278.3880 281.5633  2.13106595 84951
COSMOS 2464 (736)       
1 37139U 10041C   21029.22394292  .00000081  00000-0  00000-0 0  9995
2 37139  64.0981 258.0037 0028905  12.3896 169.9566  2.13100774 81007
COSMOS 2471 (701K)      
1 37372U 11009A   21029.14587163 -.00000027  00000-0  00000-0 0  9992
2 37372  65.9167  20.2181 0010312 235.9178 101.6518  2.13107432 77216
COSMOS 2476 (744)       
1 37867U 11064A   21029.98129912  .00000025  00000-0  00000+0 0  9994
2 37867  64.5522 139.4896 0019507 234.0200  20.9337  2.13101867 71955
COSMOS 2477 (745)       
1 37868U 11064B   21029.77443453  .00000024  00000-0  00000-0 0  9991
2 37868  64.5600 139.5557 0017078 234.8577  39.7941  2.13101676 71906
COSMOS 2475 (743)       
1 37869U 11064C   21029.53110167  .00000022  00000-0  00000-0 0  9997
2 37869  64.5663 139.5680 0020567 257.1280 148.4352  2.13101783 71913
COSMOS 2485 (747)       
1 39155U 13019A   21029.49878700  .00000022  00000-0  00000-0 0  9998
2 39155  64.7189 139.8243 0019999 229.3275  59.9765  2.13101787 60419
COSMOS 2492 (754)       
1 39620U 14012A   21029.75813146 -.00000028  00000-0  00000-0 0  9998
2 39620  65.8095  20.0099 0015157 317.0408 206.1425  2.13103246 53377
COSMOS 2500 (755)       
1 40001U 14032A   21030.05066675 -.00000028  00000-0  00000+0 0  9996
2 40001  65.7490  19.8989 0007513 224.2241  23.3406  2.13102503 51590
COSMOS 2501 (702K)      
1 40315U 14075A   21029.74904932  .00000077  00000-0  00000-0 0  9996
2 40315  63.8118 258.8462 0015574 209.3766 332.6736  2.13101383 47993
COSMOS 2514 (751)       
1 41330U 16008A   21029.73410476 -.00000029  00000-0  00000-0 0  9994
2 41330  65.5518  19.7269 0011330 226.2215 321.3695  2.13102917 38753
COSMOS 2516 (753)       
1 41554U 16032A   21029.40252690  .00000079  00000-0  00000-0 0  9999
2 41554  64.0350 258.9936 0011424 216.6250 328.8722  2.13106971 36354
COSMOS 2522 (752)       
1 42939U 17055A   21028.45709896  .00000084  00000-0  00000-0 0  9998
2 42939  64.2704 259.2729 0005959 255.3314 150.4895  2.13102016 26094
COSMOS 2527 (756)       
1 43508U 18053A   21029.75765816  .00000024  00000-0  00000-0 0  9992
2 43508  64.8853 139.7117 0007152 222.5062 133.0580  2.13102576 20402
COSMOS 2529 (757)       
1 43687U 18086A   21029.21838218  .00000080  00000-0  00000-0 0  9996
2 43687  64.4832 259.4275 0008869 279.6636 305.7533  2.13102132 17415
COSMOS 2534 (758)       
1 44299U 19030A   21029.36656933  .00000080  00000-0  00000+0 0  9993
2 44299  64.5546 259.2607 0012275 297.5657 176.4349  2.13101876 13062
COSMOS 2544 (759)       
1 44850U 19088A   21030.04881322  .00000026  00000-0  00000+0 0  9998
2 44850  64.8685 139.5639 0010684 260.0133   2.7913  2.13102325  8852
COSMOS 2545 (760)       
1 45358U 20018A   21029.70132712 -.00000029  00000-0  00000-0 0  9995
2 45358  64.8826  20.7514 0011429 256.4087 310.0099  2.13102707  6796
